start=new Date('2021-10-08T00:00:00.000Z').valueOf();
sats=[{"MEAN_ANOMALY":"163.0825","ECCENTRICITY":"0.00011870","OBJECT_NAME":"STARLINK-2284","OBJECT_ID":"2021-024AR","APOAPSIS":"368.475","ARG_OF_PERICENTER":"80.0365","TLE_LINE1":"1 48016U 21024AR  21280.91667824 -.00961155  00000-0 -98023-2 0  9997","MEAN_MOTION_DOT":"-0.00961155","DECAY_DATE":null,"REF_FRAME":"TEME","FILE":"3150302","CLASSIFICATION_TYPE":"U","LAUNCH_DATE":"2021-03-24","MEAN_ELEMENT_THEORY":"SGP4","REV_AT_EPOCH":"367","TIME_SYSTEM":"UTC","MEAN_MOTION_DDOT":"0.0000000000000","EPOCH":"2021-10-07T22:00:00.999936","MEAN_MOTION":"15.66937346","TLE_LINE2":"2 48016  53.0430 302.7379 0001187  80.0365 163.0825 15.66937346  3677","CENTER_NAME":"EARTH","PERIOD":"91.899","PERIAPSIS":"366.874","ELEMENT_SET_NO":"999","INCLINATION":"53.0430","SEMIMAJOR_AXIS":"6745.810","SITE":"AFETR","OBJECT_TYPE":"PAYLOAD","NORAD_CAT_ID":"48016","RCS_SIZE":"LARGE","RA_OF_ASC_NODE":"302.7379","BSTAR":"-0.00980230000000","GP_ID":"186511146","EPHEMERIS_TYPE":"0","COUNTRY_CODE":"US"},{"OBJECT_NAME":"STARLINK-2239","ECCENTRICITY":"0.00014980","MEAN_ANOMALY":"264.8170","APOAPSIS":"548.245","OBJECT_ID":"2021-024AS","FILE":"3150302","REF_FRAME":"TEME","DECAY_DATE":null,"MEAN_MOTION_DOT":"0.00000242","ARG_OF_PERICENTER":"95.2990","TLE_LINE1":"1 48017U 21024AS  21280.60952889  .00000242  00000-0  35137-4 0  9990","MEAN_MOTION_DDOT":"0.0000000000000","EPOCH":"2021-10-07T14:37:43.296096","TIME_SYSTEM":"UTC","REV_AT_EPOCH":"3143","MEAN_ELEMENT_THEORY":"SGP4","CLASSIFICATION_TYPE":"U","LAUNCH_DATE":"2021-03-24","CENTER_NAME":"EARTH","TLE_LINE2":"2 48017  53.0563   7.5001 0001498  95.2990 264.8170 15.06401920 31430","MEAN_MOTION":"15.06401920","SEMIMAJOR_AXIS":"6925.343","INCLINATION":"53.0563","ELEMENT_SET_NO":"999","PERIOD":"95.592","PERIAPSIS":"546.170","RCS_SIZE":"LARGE","RA_OF_ASC_NODE":"7.5001","OBJECT_TYPE":"PAYLOAD","NORAD_CAT_ID":"48017","SITE":"AFETR","COUNTRY_CODE":"US","GP_ID":"186512404","EPHEMERIS_TYPE":"0","BSTAR":"0.00003513700000"},{"APOAPSIS":"550.429","OBJECT_ID":"2021-024AT","OBJECT_NAME":"STARLINK-2282","ECCENTRICITY":"0.00010460","MEAN_ANOMALY":"257.8157","MEAN_MOTION_DDOT":"0.0000000000000","EPOCH":"2021-10-07T15:22:23.267712","REV_AT_EPOCH":"3150","TIME_SYSTEM":"UTC","MEAN_ELEMENT_THEORY":"SGP4","CLASSIFICATION_TYPE":"U","LAUNCH_DATE":"2021-03-24","REF_FRAME":"TEME","FILE":"3150302","DECAY_DATE":null,"MEAN_MOTION_DOT":"0.00000666","TLE_LINE1":"1 48018U 21024AT  21280.64054708  .00000666  00000-0  64836-4 0  9996","ARG_OF_PERICENTER":"102.2948","SEMIMAJOR_AXIS":"6927.839","INCLINATION":"53.0517","ELEMENT_SET_NO":"999","PERIAPSIS":"548.980","PERIOD":"95.644","CENTER_NAME":"EARTH","TLE_LINE2":"2 48018  53.0517   7.1581 0001046 102.2948 257.8157 15.05587684 31506","MEAN_MOTION":"15.05587684","COUNTRY_CODE":"US","GP_ID":"186512130","EPHEMERIS_TYPE":"0","BSTAR":"0.00006483600000","RA_OF_ASC_NODE":"7.1581","RCS_SIZE":"LARGE","OBJECT_TYPE":"PAYLOAD","NORAD_CAT_ID":"48018","SITE":"AFETR"},{"MEAN_MOTION":"15.06409177","CENTER_NAME":"EARTH","TLE_LINE2":"2 48019  53.0584 357.4072 0001025 100.6436 259.4668 15.06409177 31571","ELEMENT_SET_NO":"999","PERIOD":"95.592","PERIAPSIS":"546.476","SEMIMAJOR_AXIS":"6925.320","INCLINATION":"53.0584","SITE":"AFETR","RCS_SIZE":"LARGE","RA_OF_ASC_NODE":"357.4072","OBJECT_TYPE":"PAYLOAD","NORAD_CAT_ID":"48019","BSTAR":"0.00005357600000","COUNTRY_CODE":"US","EPHEMERIS_TYPE":"0","GP_ID":"186510903","ECCENTRICITY":"0.00010250","MEAN_ANOMALY":"259.4668","OBJECT_NAME":"STARLINK-2285","OBJECT_ID":"2021-024AU","APOAPSIS":"547.895","ARG_OF_PERICENTER":"100.6436","TLE_LINE1":"1 48019U 21024AU  21280.62981840  .00000517  00000-0  53576-4 0  9995","FILE":"3150302","REF_FRAME":"TEME","MEAN_MOTION_DOT":"0.00000517","DECAY_DATE":null,"MEAN_ELEMENT_THEORY":"SGP4","LAUNCH_DATE":"2021-03-24","CLASSIFICATION_TYPE":"U","EPOCH":"2021-10-07T15:06:56.309760","MEAN_MOTION_DDOT":"0.0000000000000","REV_AT_EPOCH":"3157","TIME_SYSTEM":"UTC"},{"MEAN_MOTION_DDOT":"0.0000000000000","EPOCH":"2021-10-07T22:00:00.999936","TIME_SYSTEM":"UTC","REV_AT_EPOCH":"362","MEAN_ELEMENT_THEORY":"SGP4","LAUNCH_DATE":"2021-03-24","CLASSIFICATION_TYPE":"U","REF_FRAME":"TEME","FILE":"3150302","DECAY_DATE":null,"MEAN_MOTION_DOT":"0.00013925","TLE_LINE1":"1 48020U 21024AV  21280.91667824  .00013925  00000-0  95182-3 0  9997","ARG_OF_PERICENTER":"39.0604","APOAPSIS":"548.341","OBJECT_ID":"2021-024AV","OBJECT_NAME":"STARLINK-2294","ECCENTRICITY":"0.00016400","MEAN_ANOMALY":"50.1384","COUNTRY_CODE":"US","GP_ID":"186511647","EPHEMERIS_TYPE":"0","BSTAR":"0.00095182000000","RA_OF_ASC_NODE":"311.1140","RCS_SIZE":"LARGE","OBJECT_TYPE":"PAYLOAD","NORAD_CAT_ID":"48020","SITE":"AFETR","SEMIMAJOR_AXIS":"6925.340","INCLINATION":"53.0437","ELEMENT_SET_NO":"999","PERIAPSIS":"546.070","PERIOD":"95.592","CENTER_NAME":"EARTH","TLE_LINE2":"2 48020  53.0437 311.1140 0001640  39.0604  50.1384 15.06402668  3622","MEAN_MOTION":"15.06402668"},{"EPHEMERIS_TYPE":"0","GP_ID":"186463460","COUNTRY_CODE":"US","BSTAR":"-0.00003858900000","NORAD_CAT_ID":"48021","OBJECT_TYPE":"PAYLOAD","RA_OF_ASC_NODE":"318.3436","RCS_SIZE":"LARGE","SITE":"AFETR","INCLINATION":"53.0535","SEMIMAJOR_AXIS":"6925.366","PERIAPSIS":"546.246","PERIOD":"95.592","ELEMENT_SET_NO":"999","TLE_LINE2":"2 48021  53.0535 318.3436 0001422  57.0106 303.1020 15.06394462 32110","CENTER_NAME":"EARTH","MEAN_MOTION":"15.06394462","REV_AT_EPOCH":"3211","TIME_SYSTEM":"UTC","EPOCH":"2021-10-07T10:04:24.601152","MEAN_MOTION_DDOT":"0.0000000000000","CLASSIFICATION_TYPE":"U","LAUNCH_DATE":"2021-03-24","MEAN_ELEMENT_THEORY":"SGP4","MEAN_MOTION_DOT":"-0.00000856","DECAY_DATE":null,"REF_FRAME":"TEME","FILE":"3149232","TLE_LINE1":"1 48021U 21024AW  21280.41972918 -.00000856  00000-0 -38589-4 0  9996","ARG_OF_PERICENTER":"57.0106","APOAPSIS":"548.215","OBJECT_ID":"2021-024AW","OBJECT_NAME":"STARLINK-2301","MEAN_ANOMALY":"303.1020","ECCENTRICITY":"0.00014220"},{"SITE":"AFETR","NORAD_CAT_ID":"48022","OBJECT_TYPE":"PAYLOAD","RA_OF_ASC_NODE":"17.1681","RCS_SIZE":"LARGE","BSTAR":"0.00002866900000","GP_ID":"186512631","EPHEMERIS_TYPE":"0","COUNTRY_CODE":"US","MEAN_MOTION":"15.06403123","TLE_LINE2":"2 48022  53.0569  17.1681 0001101 109.0062 251.1046 15.06403123 31368","CENTER_NAME":"EARTH","PERIAPSIS":"546.442","PERIOD":"95.592","ELEMENT_SET_NO":"999","INCLINATION":"53.0569","SEMIMAJOR_AXIS":"6925.339","TLE_LINE1":"1 48022U 21024AX  21280.68600419  .00000146  00000-0  28669-4 0  9998","ARG_OF_PERICENTER":"109.0062","DECAY_DATE":null,"MEAN_MOTION_DOT":"0.00000146","REF_FRAME":"TEME","FILE":"3150302","LAUNCH_DATE":"2021-03-24","CLASSIFICATION_TYPE":"U","MEAN_ELEMENT_THEORY":"SGP4","REV_AT_EPOCH":"3136","TIME_SYSTEM":"UTC","EPOCH":"2021-10-07T16:27:50.762016","MEAN_MOTION_DDOT":"0.0000000000000","MEAN_ANOMALY":"251.1046","ECCENTRICITY":"0.00011010","OBJECT_NAME":"STARLINK-2298","OBJECT_ID":"2021-024AX","APOAPSIS":"547.966"},{"REF_FRAME":"TEME","FILE":"3150302","DECAY_DATE":null,"MEAN_MOTION_DOT":"0.00002007","TLE_LINE1":"1 48023U 21024AY  21280.63535324  .00002007  00000-0  15360-3 0  9997","ARG_OF_PERICENTER":"94.9902","MEAN_MOTION_DDOT":"0.0000000000000","EPOCH":"2021-10-07T15:14:54.519936","REV_AT_EPOCH":"3135","TIME_SYSTEM":"UTC","MEAN_ELEMENT_THEORY":"SGP4","CLASSIFICATION_TYPE":"U","LAUNCH_DATE":"2021-03-24","OBJECT_NAME":"STARLINK-2292","ECCENTRICITY":"0.00012390","MEAN_ANOMALY":"265.1229","APOAPSIS":"548.067","OBJECT_ID":"2021-024AY","RA_OF_ASC_NODE":"17.3787","RCS_SIZE":"LARGE","NORAD_CAT_ID":"48023","OBJECT_TYPE":"PAYLOAD","SITE":"AFETR","COUNTRY_CODE":"US","GP_ID":"186511404","EPHEMERIS_TYPE":"0","BSTAR":"0.00015360000000","CENTER_NAME":"EARTH","TLE_LINE2":"2 48023  53.0567  17.3787 0001239  94.9902 265.1229 15.06401473 31356","MEAN_MOTION":"15.06401473","SEMIMAJOR_AXIS":"6925.344","INCLINATION":"53.0567","ELEMENT_SET_NO":"999","PERIAPSIS":"546.351","PERIOD":"95.592"},{"MEAN_ANOMALY":"133.2543","ECCENTRICITY":"0.00079520","OBJECT_NAME":"STARLINK-2302","OBJECT_ID":"2021-024AZ","APOAPSIS":"355.092","ARG_OF_PERICENTER":"293.6759","TLE_LINE1":"1 48024U 21024AZ  21280.91667824 -.00035297  00000-0 -24742-3 0  9993","DECAY_DATE":null,"MEAN_MOTION_DOT":"-0.00035297","REF_FRAME":"TEME","FILE":"3150302","LAUNCH_DATE":"2021-03-24","CLASSIFICATION_TYPE":"U","MEAN_ELEMENT_THEORY":"SGP4","REV_AT_EPOCH":"368","TIME_SYSTEM":"UTC","MEAN_MOTION_DDOT":"0.0000000000000","EPOCH":"2021-10-07T22:00:00.999936","MEAN_MOTION":"15.73206369","TLE_LINE2":"2 48024  53.0435 302.3733 0007952 293.6759 133.2543 15.73206369  3685","CENTER_NAME":"EARTH","PERIOD":"91.533","PERIAPSIS":"344.392","ELEMENT_SET_NO":"999","INCLINATION":"53.0435","SEMIMAJOR_AXIS":"6727.877","SITE":"AFETR","OBJECT_TYPE":"PAYLOAD","NORAD_CAT_ID":"48024","RCS_SIZE":"LARGE","RA_OF_ASC_NODE":"302.3733","BSTAR":"-0.00024742000000","EPHEMERIS_TYPE":"0","GP_ID":"186511147","COUNTRY_CODE":"US"},{"COUNTRY_CODE":"US","EPHEMERIS_TYPE":"0","GP_ID":"186512405","BSTAR":"-0.00061651000000","RA_OF_ASC_NODE":"302.3672","RCS_SIZE":"LARGE","OBJECT_TYPE":"PAYLOAD","NORAD_CAT_ID":"48025","SITE":"AFETR","SEMIMAJOR_AXIS":"6727.712","INCLINATION":"53.0432","ELEMENT_SET_NO":"999","PERIAPSIS":"347.461","PERIOD":"91.529","CENTER_NAME":"EARTH","TLE_LINE2":"2 48025  53.0432 302.3672 0003145  11.8419  55.6937 15.73264355  3681","MEAN_MOTION":"15.73264355","MEAN_MOTION_DDOT":"0.0000000000000","EPOCH":"2021-10-07T22:00:00.999936","TIME_SYSTEM":"UTC","REV_AT_EPOCH":"368","MEAN_ELEMENT_THEORY":"SGP4","LAUNCH_DATE":"2021-03-24","CLASSIFICATION_TYPE":"U","FILE":"3150302","REF_FRAME":"TEME","MEAN_MOTION_DOT":"-0.00086542","DECAY_DATE":null,"TLE_LINE1":"1 48025U 21024BA  21280.91667824 -.00086542  00000-0 -61651-3 0  9993","ARG_OF_PERICENTER":"11.8419","APOAPSIS":"351.693","OBJECT_ID":"2021-024BA","OBJECT_NAME":"STARLINK-2318","ECCENTRICITY":"0.00031450","MEAN_ANOMALY":"55.6937"}];
